RADUGA 25 [-]           
1 20499U 90016A   17345.29791409 -.00000274  00000-0  00000-0 0  9995
2 20499  14.9300   1.0726 0004352 260.2107 249.5710  1.00302734101720
